COSMOS 2242             
1 22626U 93024A   26062.68513548  .00002150  00000+0  18658-3 0  9990
2 22626  82.5156 272.4617 0015592 330.3518  29.6819 14.96519769779499
SL-16 R/B               
1 22803U 93059B   26062.83040627  .00000021  00000+0  34041-4 0  9995
2 22803  70.9920  23.4812 0018796 224.8484 135.1121 14.17232219678701
ARIANE 40 R/B           
1 22830U 93061H   26062.69314522  .00000270  00000+0  11461-3 0  9996
2 22830  98.4930 131.6990 0009648 304.9488  55.0789 14.32857309693242
COSMOS 2278             
1 23087U 94023A   26062.79837317  .00000316  00000+0  18962-3 0  9997
2 23087  71.0542 187.4212 0007656  25.2253 334.9242 14.14375747643978
SL-16 R/B               
1 23088U 94023B   26062.49402748 -.00000094  00000+0 -23975-4 0  9997
2 23088  70.9987  83.8998 0005605 291.6296  68.4229 14.15013435645215
SL-16 R/B               
1 23343U 94074B   26062.64830262  .00000663  00000+0  95484-4 0  9994
2 23343  97.7117  93.7106 0005388 233.8032 239.3935 14.79399863686351
SL-16 R/B               
1 23405U 94077B   26062.26606304 -.00000246  00000+0 -10114-3 0  9997
2 23405  70.9851   6.0016 0003451 221.0572 139.0291 14.15562406615327
ARIANE 40+ R/B          
1 23561U 95021B   26062.78059568  .00000402  00000+0  14195-3 0  9996
2 23561  98.4509 134.3430 0007385 152.3208 320.1378 14.39767523618394
SL-16 R/B               
1 23705U 95058B   26062.69675183 -.00000012  00000+0  17964-4 0  9999
2 23705  71.0210 192.8358 0011013 136.3924 223.8071 14.15492747567005
SL-16 R/B               
1 24298U 96051B   26062.72126563  .00000086  00000+0  73235-4 0  9991
2 24298  70.7596 187.8705 0015617 156.8881 203.2944 14.12413785520809
ORBVIEW 2 (SEASTAR)     
1 24883U 97037A   26062.42350352  .00000436  00000+0  16786-3 0  9994
2 24883  98.8555 226.5696 0003184  84.6018 275.5530 14.35489418507574
SL-16 R/B               
1 25400U 98043G   26062.76771221  .00000078  00000+0  51592-4 0  9994
2 25400  98.8245  16.0896 0010488  36.6791 323.5105 14.26048137438147
SL-16 R/B               
1 25407U 98045B   26062.78126200 -.00000206  00000+0 -80139-4 0  9990
2 25407  71.0112 193.9979 0006395  17.0539 343.0798 14.16189420426267
ISS (ZARYA)             
1 25544U 98067A   26062.76956237  .00010027  00000+0  19358-3 0  9999
2 25544  51.6317 101.6250 0008204 153.6152 206.5256 15.48425902555413
CZ-4B R/B               
1 25732U 99025C   26062.74920984  .00000081  00000+0  59787-4 0  9991
2 25732  98.6639 107.1713 0037082   3.7679 107.5443 14.18263948387327
OKEAN-O                 
1 25860U 99039A   26062.70373512  .00000895  00000+0  12426-3 0  9994
2 25860  97.9454 122.6557 0001442  71.1339 289.0030 14.80324289433502
SL-16 R/B               
1 25861U 99039B   26062.75677063  .00000796  00000+0  10777-3 0  9995
2 25861  97.9978 121.8620 0013446 277.3941  82.5744 14.81722059435982
